[{"OBJECT_NAME":"ONEWEB-0212","OBJECT_ID":"2021-045AA","EPOCH":"2026-02-17T02:46:08.166720","MEAN_MOTION":13.15548863,"ECCENTRICITY":0.0001599,"INCLINATION":87.8972,"RA_OF_ASC_NODE":283.1557,"ARG_OF_PERICENTER":85.7421,"MEAN_ANOMALY":274.3892,"EPHEMERIS_TYPE":0,"CLASSIFICATION_TYPE":"U","NORAD_CAT_ID":48791,"ELEMENT_SET_NO":999,"REV_AT_EPOCH":22864,"BSTAR":0.0003205,"MEAN_MOTION_DOT":1.33e-6,"MEAN_MOTION_DDOT":0},{"OBJECT_NAME":"ONEWEB-0227","OBJECT_ID":"2021-045AB","EPOCH":"2026-02-17T02:45:00.187200","MEAN_MOTION":13.15548977,"ECCENTRICITY":0.0001552,"INCLINATION":87.8969,"RA_OF_ASC_NODE":283.1601,"ARG_OF_PERICENTER":89.3049,"MEAN_ANOMALY":270.8259,"EPHEMERIS_TYPE":0,"CLASSIFICATION_TYPE":"U","NORAD_CAT_ID":48792,"ELEMENT_SET_NO":999,"REV_AT_EPOCH":22859,"BSTAR":0.00040104,"MEAN_MOTION_DOT":1.64e-6,"MEAN_MOTION_DDOT":0},{"OBJECT_NAME":"ONEWEB-0226","OBJECT_ID":"2021-045AC","EPOCH":"2026-02-17T00:46:20.270784","MEAN_MOTION":13.15550121,"ECCENTRICITY":0.0001231,"INCLINATION":87.8964,"RA_OF_ASC_NODE":283.1858,"ARG_OF_PERICENTER":90.9862,"MEAN_ANOMALY":269.141,"EPHEMERIS_TYPE":0,"CLASSIFICATION_TYPE":"U","NORAD_CAT_ID":48793,"ELEMENT_SET_NO":999,"REV_AT_EPOCH":22855,"BSTAR":0.00043778,"MEAN_MOTION_DOT":1.78e-6,"MEAN_MOTION_DDOT":0},{"OBJECT_NAME":"ONEWEB-0224","OBJECT_ID":"2021-045AD","EPOCH":"2026-02-17T03:32:54.258144","MEAN_MOTION":13.15549052,"ECCENTRICITY":0.0002143,"INCLINATION":87.8963,"RA_OF_ASC_NODE":283.1988,"ARG_OF_PERICENTER":107.1428,"MEAN_ANOMALY":252.9937,"EPHEMERIS_TYPE":0,"CLASSIFICATION_TYPE":"U","NORAD_CAT_ID":48794,"ELEMENT_SET_NO":999,"REV_AT_EPOCH":22849,"BSTAR":-0.00019252,"MEAN_MOTION_DOT":-6.0e-7,"MEAN_MOTION_DDOT":0},{"OBJECT_NAME":"ONEWEB-0233","OBJECT_ID":"2021-045AE","EPOCH":"2026-02-17T03:39:33.873696","MEAN_MOTION":13.15549778,"ECCENTRICITY":0.0001487,"INCLINATION":87.8963,"RA_OF_ASC_NODE":283.2068,"ARG_OF_PERICENTER":94.8432,"MEAN_ANOMALY":265.2868,"EPHEMERIS_TYPE":0,"CLASSIFICATION_TYPE":"U","NORAD_CAT_ID":48795,"ELEMENT_SET_NO":999,"REV_AT_EPOCH":22851,"BSTAR":7.5022e-5,"MEAN_MOTION_DOT":4.1e-7,"MEAN_MOTION_DDOT":0},{"OBJECT_NAME":"ONEWEB-0190","OBJECT_ID":"2021-045AF","EPOCH":"2026-02-17T03:21:29.488896","MEAN_MOTION":13.15546748,"ECCENTRICITY":0.0001129,"INCLINATION":87.8964,"RA_OF_ASC_NODE":283.1705,"ARG_OF_PERICENTER":111.5465,"MEAN_ANOMALY":248.5786,"EPHEMERIS_TYPE":0,"CLASSIFICATION_TYPE":"U","NORAD_CAT_ID":48796,"ELEMENT_SET_NO":999,"REV_AT_EPOCH":22858,"BSTAR":-0.00014695,"MEAN_MOTION_DOT":-4.3e-7,"MEAN_MOTION_DDOT":0},{"OBJECT_NAME":"ONEWEB-0236","OBJECT_ID":"2021-045AG","EPOCH":"2026-02-17T03:46:36.352416","MEAN_MOTION":13.1554977,"ECCENTRICITY":0.0001706,"INCLINATION":87.8961,"RA_OF_ASC_NODE":283.1786,"ARG_OF_PERICENTER":84.2143,"MEAN_ANOMALY":275.9182,"EPHEMERIS_TYPE":0,"CLASSIFICATION_TYPE":"U","NORAD_CAT_ID":48797,"ELEMENT_SET_NO":999,"REV_AT_EPOCH":22847,"BSTAR":0.00013527,"MEAN_MOTION_DOT":6.4e-7,"MEAN_MOTION_DDOT":0},{"OBJECT_NAME":"ONEWEB-0248","OBJECT_ID":"2021-045AH","EPOCH":"2026-02-17T04:04:51.550176","MEAN_MOTION":13.15550008,"ECCENTRICITY":0.0001663,"INCLINATION":87.8972,"RA_OF_ASC_NODE":283.1474,"ARG_OF_PERICENTER":106.8028,"MEAN_ANOMALY":253.3285,"EPHEMERIS_TYPE":0,"CLASSIFICATION_TYPE":"U","NORAD_CAT_ID":48798,"ELEMENT_SET_NO":999,"REV_AT_EPOCH":22863,"BSTAR":0.00029774,"MEAN_MOTION_DOT":1.25e-6,"MEAN_MOTION_DDOT":0},{"OBJECT_NAME":"ONEWEB-0225","OBJECT_ID":"2021-045AJ","EPOCH":"2026-02-17T00:57:45.345024","MEAN_MOTION":13.15550173,"ECCENTRICITY":0.0001216,"INCLINATION":87.8966,"RA_OF_ASC_NODE":283.1908,"ARG_OF_PERICENTER":110.0927,"MEAN_ANOMALY":250.0334,"EPHEMERIS_TYPE":0,"CLASSIFICATION_TYPE":"U","NORAD_CAT_ID":48799,"ELEMENT_SET_NO":999,"REV_AT_EPOCH":22862,"BSTAR":0.00025892,"MEAN_MOTION_DOT":1.1e-6,"MEAN_MOTION_DDOT":0},{"OBJECT_NAME":"ONEWEB-0215","OBJECT_ID":"2021-045AK","EPOCH":"2026-02-17T03:53:28.266144","MEAN_MOTION":13.15550318,"ECCENTRICITY":0.00013,"INCLINATION":87.8975,"RA_OF_ASC_NODE":283.1368,"ARG_OF_PERICENTER":112.9963,"MEAN_ANOMALY":247.1304,"EPHEMERIS_TYPE":0,"CLASSIFICATION_TYPE":"U","NORAD_CAT_ID":48800,"ELEMENT_SET_NO":999,"REV_AT_EPOCH":22851,"BSTAR":0.00022379,"MEAN_MOTION_DOT":9.7e-7,"MEAN_MOTION_DDOT":0},{"OBJECT_NAME":"ONEWEB-0216","OBJECT_ID":"2021-045AL","EPOCH":"2026-02-17T04:07:08.386176","MEAN_MOTION":13.15549708,"ECCENTRICITY":0.0001417,"INCLINATION":87.8963,"RA_OF_ASC_NODE":283.1571,"ARG_OF_PERICENTER":81.0838,"MEAN_ANOMALY":279.0452,"EPHEMERIS_TYPE":0,"CLASSIFICATION_TYPE":"U","NORAD_CAT_ID":48801,"ELEMENT_SET_NO":999,"REV_AT_EPOCH":22852,"BSTAR":0.00051622,"MEAN_MOTION_DOT":2.07e-6,"MEAN_MOTION_DDOT":0},{"OBJECT_NAME":"ONEWEB-0239","OBJECT_ID":"2021-045AM","EPOCH":"2026-02-17T04:13:58.272096","MEAN_MOTION":13.15551053,"ECCENTRICITY":0.000158,"INCLINATION":87.8963,"RA_OF_ASC_NODE":283.17,"ARG_OF_PERICENTER":117.1789,"MEAN_ANOMALY":242.9502,"EPHEMERIS_TYPE":0,"CLASSIFICATION_TYPE":"U","NORAD_CAT_ID":48802,"ELEMENT_SET_NO":999,"REV_AT_EPOCH":22856,"BSTAR":0.00037528,"MEAN_MOTION_DOT":1.54e-6,"MEAN_MOTION_DDOT":0},{"OBJECT_NAME":"ONEWEB-0249","OBJECT_ID":"2021-060A","EPOCH":"2026-02-17T03:06:43.977888","MEAN_MOTION":13.16592354,"ECCENTRICITY":0.0001656,"INCLINATION":87.8999,"RA_OF_ASC_NODE":252.6707,"ARG_OF_PERICENTER":97.9828,"MEAN_ANOMALY":262.149,"EPHEMERIS_TYPE":0,"CLASSIFICATION_TYPE":"U","NORAD_CAT_ID":48967,"ELEMENT_SET_NO":999,"REV_AT_EPOCH":22381,"BSTAR":0.00013217,"MEAN_MOTION_DOT":6.3e-7,"MEAN_MOTION_DDOT":0},{"OBJECT_NAME":"ONEWEB-0250","OBJECT_ID":"2021-060B","EPOCH":"2026-02-17T02:05:21.202944","MEAN_MOTION":13.25827243,"ECCENTRICITY":0.0002594,"INCLINATION":87.8996,"RA_OF_ASC_NODE":250.8269,"ARG_OF_PERICENTER":103.6642,"MEAN_ANOMALY":256.4783,"EPHEMERIS_TYPE":0,"CLASSIFICATION_TYPE":"U","NORAD_CAT_ID":48968,"ELEMENT_SET_NO":999,"REV_AT_EPOCH":22430,"BSTAR":-2.3914e-5,"MEAN_MOTION_DOT":3.0e-8,"MEAN_MOTION_DDOT":0},{"OBJECT_NAME":"ONEWEB-0252","OBJECT_ID":"2021-060D","EPOCH":"2026-02-17T02:01:44.797728","MEAN_MOTION":13.16595792,"ECCENTRICITY":0.0001356,"INCLINATION":87.8994,"RA_OF_ASC_NODE":252.6735,"ARG_OF_PERICENTER":87.4554,"MEAN_ANOMALY":272.6732,"EPHEMERIS_TYPE":0,"CLASSIFICATION_TYPE":"U","NORAD_CAT_ID":48970,"ELEMENT_SET_NO":999,"REV_AT_EPOCH":22385,"BSTAR":-9.0903e-5,"MEAN_MOTION_DOT":-2.2e-7,"MEAN_MOTION_DDOT":0},{"OBJECT_NAME":"ONEWEB-0253","OBJECT_ID":"2021-060E","EPOCH":"2026-02-17T01:45:48.673728","MEAN_MOTION":13.16595188,"ECCENTRICITY":0.000152,"INCLINATION":87.8996,"RA_OF_ASC_NODE":252.6809,"ARG_OF_PERICENTER":97.9467,"MEAN_ANOMALY":262.1837,"EPHEMERIS_TYPE":0,"CLASSIFICATION_TYPE":"U","NORAD_CAT_ID":48971,"ELEMENT_SET_NO":999,"REV_AT_EPOCH":22378,"BSTAR":7.0527e-5,"MEAN_MOTION_DOT":4.0e-7,"MEAN_MOTION_DDOT":0},{"OBJECT_NAME":"ONEWEB-0254","OBJECT_ID":"2021-060F","EPOCH":"2026-02-17T01:59:29.175648","MEAN_MOTION":13.16594776,"ECCENTRICITY":0.0001624,"INCLINATION":87.8997,"RA_OF_ASC_NODE":252.6731,"ARG_OF_PERICENTER":105.768,"MEAN_ANOMALY":254.363,"EPHEMERIS_TYPE":0,"CLASSIFICATION_TYPE":"U","NORAD_CAT_ID":48972,"ELEMENT_SET_NO":999,"REV_AT_EPOCH":22378,"BSTAR":0.00037074,"MEAN_MOTION_DOT":1.55e-6,"MEAN_MOTION_DDOT":0}]
