ONEWEB-0212             
1 48791U 21045AA  26048.11537230  .00000133  00000+0  32050-3 0  9992
2 48791  87.8972 283.1557 0001599  85.7421 274.3892 13.15548863228645
ONEWEB-0227             
1 48792U 21045AB  26048.11458550  .00000164  00000+0  40104-3 0  9993
2 48792  87.8969 283.1601 0001552  89.3049 270.8259 13.15548977228595
ONEWEB-0226             
1 48793U 21045AC  26048.03217906  .00000178  00000+0  43778-3 0  9998
2 48793  87.8964 283.1858 0001231  90.9862 269.1410 13.15550121228550
ONEWEB-0224             
1 48794U 21045AD  26048.14785021 -.00000060  00000+0 -19252-3 0  9991
2 48794  87.8963 283.1988 0002143 107.1428 252.9937 13.15549052228494
ONEWEB-0233             
1 48795U 21045AE  26048.15247539  .00000041  00000+0  75022-4 0  9995
2 48795  87.8963 283.2068 0001487  94.8432 265.2868 13.15549778228510
ONEWEB-0190             
1 48796U 21045AF  26048.13992464 -.00000043  00000+0 -14695-3 0  9990
2 48796  87.8964 283.1705 0001129 111.5465 248.5786 13.15546748228589
ONEWEB-0236             
1 48797U 21045AG  26048.15736519  .00000064  00000+0  13527-3 0  9994
2 48797  87.8961 283.1786 0001706  84.2143 275.9182 13.15549770228476
ONEWEB-0248             
1 48798U 21045AH  26048.17004109  .00000125  00000+0  29774-3 0  9999
2 48798  87.8972 283.1474 0001663 106.8028 253.3285 13.15550008228636
ONEWEB-0225             
1 48799U 21045AJ  26048.04010816  .00000110  00000+0  25892-3 0  9999
2 48799  87.8966 283.1908 0001216 110.0927 250.0334 13.15550173228622
ONEWEB-0215             
1 48800U 21045AK  26048.16213271  .00000097  00000+0  22379-3 0  9996
2 48800  87.8975 283.1368 0001300 112.9963 247.1304 13.15550318228513
ONEWEB-0216             
1 48801U 21045AL  26048.17162484  .00000207  00000+0  51622-3 0  9993
2 48801  87.8963 283.1571 0001417  81.0838 279.0452 13.15549708228523
ONEWEB-0239             
1 48802U 21045AM  26048.17636889  .00000154  00000+0  37528-3 0  9999
2 48802  87.8963 283.1700 0001580 117.1789 242.9502 13.15551053228560
ONEWEB-0249             
1 48967U 21060A   26048.12967567  .00000063  00000+0  13217-3 0  9991
2 48967  87.8999 252.6707 0001656  97.9828 262.1490 13.16592354223815
ONEWEB-0250             
1 48968U 21060B   26048.08705096  .00000003  00000+0 -23914-4 0  9995
2 48968  87.8996 250.8269 0002594 103.6642 256.4783 13.25827243224301
ONEWEB-0252             
1 48970U 21060D   26048.08454627 -.00000022  00000+0 -90903-4 0  9993
2 48970  87.8994 252.6735 0001356  87.4554 272.6732 13.16595792223850
ONEWEB-0253             
1 48971U 21060E   26048.07348002  .00000040  00000+0  70527-4 0  9990
2 48971  87.8996 252.6809 0001520  97.9467 262.1837 13.16595188223788
ONEWEB-0254             
1 48972U 21060F   26048.08297657  .00000155  00000+0  37074-3 0  9997
2 48972  87.8997 252.6731 0001624 105.7680 254.3630 13.16594776223780
